[{"OBJECT_NAME":"COSMOS 2486","OBJECT_ID":"2013-028A","EPOCH":"2026-03-09T22:16:04.416096","MEAN_MOTION":14.56145147,"ECCENTRICITY":0.00103796,"INCLINATION":98.004,"RA_OF_ASC_NODE":40.2497,"ARG_OF_PERICENTER":332.4054,"MEAN_ANOMALY":27.6592,"EPHEMERIS_TYPE":0,"CLASSIFICATION_TYPE":"U","NORAD_CAT_ID":39177,"ELEMENT_SET_NO":999,"REV_AT_EPOCH":67693,"BSTAR":6.977993e-5,"MEAN_MOTION_DOT":2.65e-6,"MEAN_MOTION_DDOT":0},{"OBJECT_NAME":"CENTISPACE-1 S1","OBJECT_ID":"2018-075A","EPOCH":"2026-03-09T22:27:35.656704","MEAN_MOTION":14.59881331,"ECCENTRICITY":0.00099543,"INCLINATION":97.8837,"RA_OF_ASC_NODE":97.6295,"ARG_OF_PERICENTER":76.115,"MEAN_ANOMALY":284.1158,"EPHEMERIS_TYPE":0,"CLASSIFICATION_TYPE":"U","NORAD_CAT_ID":43636,"ELEMENT_SET_NO":999,"REV_AT_EPOCH":39607,"BSTAR":0.00015220706,"MEAN_MOTION_DOT":6.85e-6,"MEAN_MOTION_DDOT":0}]
